COMMENT,ORIGINATOR,NORAD_CAT_ID,OBJECT_NAME,OBJECT_TYPE,CLASSIFICATION_TYPE,INTLDES,EPOCH,EPOCH_MICROSECONDS,MEAN_MOTION,ECCENTRICITY,INCLINATION,RA_OF_ASC_NODE,ARG_OF_PERICENTER,MEAN_ANOMALY,EPHEMERIS_TYPE,ELEMENT_SET_NO,REV_AT_EPOCH,BSTAR,MEAN_MOTION_DOT,MEAN_MOTION_DDOT,FILE,TLE_LINE0,TLE_LINE1,TLE_LINE2,OBJECT_ID,OBJECT_NUMBER,SEMIMAJOR_AXIS,PERIOD,APOGEE,PERIGEE,DECAYED
"GENERATED VIA SPACETRACK.ORG API","18 SPCS","55089","SPACEBEE-163","PAYLOAD","U","23001CJ","2023-06-15 16:30:54","981504","15.19920294","0.0013747","97.477","226.7807","15.2378","344.9268","0","999","2487","0.00069088","0.00014831","0","3934065","0 SPACEBEE-163","1 55089U 23001CJ  23166.68813636  .00014831  00000-0  69088-3 0  9993","2 55089  97.4770 226.7807 0013747  15.2378 344.9268 15.19920294 24872","2023-001CJ","55089","6884.218","94.742","515.547","496.620","0"
"GENERATED VIA SPACETRACK.ORG API","18 SPCS","55089","SPACEBEE-163","PAYLOAD","U","23001CJ","2023-06-15 16:30:54","981504","15.19920294","0.0013747","97.477","226.7807","15.2378","344.9268","0","999","2487","0.00069088","0.00014831","0","3934071","0 SPACEBEE-163","1 55089U 23001CJ  23166.68813636  .00014831  00000-0  69088-3 0  9993","2 55089  97.4770 226.7807 0013747  15.2378 344.9268 15.19920294 24872","2023-001CJ","55089","6884.218","94.742","515.547","496.620","0"
"GENERATED VIA SPACETRACK.ORG API","18 SPCS","55089","SPACEBEE-163","PAYLOAD","U","23001CJ","2023-06-16 03:34:31","583424","15.19941976","0.0013697","97.4769","227.2373","13.5562","346.6038","0","999","2494","0.00093868","0.00020203","0","3934686","0 SPACEBEE-163","1 55089U 23001CJ  23167.14897666  .00020203  00000-0  93868-3 0  9993","2 55089  97.4769 227.2373 0013697  13.5562 346.6038 15.19941976 24946","2023-001CJ","55089","6884.153","94.740","515.447","496.589","0"
"GENERATED VIA SPACETRACK.ORG API","18 SPCS","55089","SPACEBEE-163","PAYLOAD","U","23001CJ","2023-06-16 14:38:07","635840","15.1996239","0.0013647","97.4767","227.694","11.8228","348.3325","0","999","2501","0.001029","0.00022172","0","3934906","0 SPACEBEE-163","1 55089U 23001CJ  23167.60981060  .00022172  00000-0  10290-2 0  9990","2 55089  97.4767 227.6940 0013647  11.8228 348.3325 15.19962390 25013","2023-001CJ","55089","6884.091","94.739","515.351","496.561","0"
"GENERATED VIA SPACETRACK.ORG API","18 SPCS","55089","SPACEBEE-163","PAYLOAD","U","23001CJ","2023-06-16 17:47:43","543680","15.19967157","0.0013624","97.4767","227.8246","11.3573","348.7967","0","999","2503","0.0009814","0.00021143","0","3934949","0 SPACEBEE-163","1 55089U 23001CJ  23167.74147620  .00021143  00000-0  98140-3 0  9999","2 55089  97.4767 227.8246 0013624  11.3573 348.7967 15.19967157 25031","2023-001CJ","55089","6884.077","94.739","515.321","496.563","0"
"GENERATED VIA SPACETRACK.ORG API","18 SPCS","55089","SPACEBEE-163","PAYLOAD","U","23001CJ","2023-06-17 03:16:31","66752","15.19980955","0.0013591","97.4765","228.2159","9.8761","350.2738","0","999","2509","0.00084032","0.00018093","0","3935591","0 SPACEBEE-163","1 55089U 23001CJ  23168.13647068  .00018093  00000-0  84032-3 0  9999","2 55089  97.4765 228.2159 0013591   9.8761 350.2738 15.19980955 25092","2023-001CJ","55089","6884.035","94.738","515.256","496.544","0"
"GENERATED VIA SPACETRACK.ORG API","18 SPCS","55089","SPACEBEE-163","PAYLOAD","U","23001CJ","2023-06-17 15:54:53","890272","15.2000098","0.0013541","97.4764","228.7378","7.7982","352.3461","0","999","2517","0.00078714","0.00016951","0","3935891","0 SPACEBEE-163","1 55089U 23001CJ  23168.66312373  .00016951  00000-0  78714-3 0  9996","2 55089  97.4764 228.7378 0013541   7.7982 352.3461 15.20000980 25174","2023-001CJ","55089","6883.975","94.737","515.161","496.518","0"
"GENERATED VIA SPACETRACK.ORG API","18 SPCS","55089","SPACEBEE-163","PAYLOAD","U","23001CJ","2023-06-17 22:14:05","114112","15.20009763","0.00135","97.4764","228.9989","6.8637","353.278","0","999","2521","0.00077295","0.00016647","0","3936148","0 SPACEBEE-163","1 55089U 23001CJ  23168.92644808  .00016647  00000-0  77295-3 0  9991","2 55089  97.4764 228.9989 0013500   6.8637 353.2780 15.20009763 25213","2023-001CJ","55089","6883.948","94.736","515.106","496.520","0"
"GENERATED VIA SPACETRACK.ORG API","18 SPCS","55089","SPACEBEE-163","PAYLOAD","U","23001CJ","2023-06-18 02:58:28","415136","15.20017491","0.0013446","97.4764","229.1947","6.0243","354.1151","0","999","2524","0.00078245","0.00016857","0","3936420","0 SPACEBEE-163","1 55089U 23001CJ  23169.12393999  .00016857  00000-0  78245-3 0  9995","2 55089  97.4764 229.1947 0013446   6.0243 354.1151 15.20017491 25246","2023-001CJ","55089","6883.925","94.736","515.046","496.534","0"
"GENERATED VIA SPACETRACK.ORG API","18 SPCS","55089","SPACEBEE-163","PAYLOAD","U","23001CJ","2023-06-19 02:40:23","841984","15.20053446","0.0013313","97.4763","230.1735","2.5166","357.6134","0","999","2539","0.00082588","0.00017816","0","3936984","0 SPACEBEE-163","1 55089U 23001CJ  23170.11138706  .00017816  00000-0  82588-3 0  9990","2 55089  97.4763 230.1735 0013313   2.5166 357.6134 15.20053446 25395","2023-001CJ","55089","6883.816","94.734","514.846","496.517","0"
"GENERATED VIA SPACETRACK.ORG API","18 SPCS","55089","SPACEBEE-163","PAYLOAD","U","23001CJ","2023-06-19 10:34:21","885312","15.20065033","0.0013351","97.4761","230.4999","1.5943","358.5332","0","999","2544","0.00082874","0.00017885","0","3937338","0 SPACEBEE-163","1 55089U 23001CJ  23170.44053108  .00017885  00000-0  82874-3 0  9992","2 55089  97.4761 230.4999 0013351   1.5943 358.5332 15.20065033 25443","2023-001CJ","55089","6883.781","94.733","514.837","496.456","0"
"GENERATED VIA SPACETRACK.ORG API","18 SPCS","55089","SPACEBEE-163","PAYLOAD","U","23001CJ","2023-06-20 10:16:14","556864","15.20103061","0.0013255","97.4759","231.4787","357.8923","2.2253","0","999","2559","0.0008665","0.00018725","0","3938098","0 SPACEBEE-163","1 55089U 23001CJ  23171.42794626  .00018725  00000-0  86650-3 0  9998","2 55089  97.4759 231.4787 0013255 357.8923   2.2253 15.20103061 25599","2023-001CJ","55089","6883.666","94.730","514.656","496.407","0"
"GENERATED VIA SPACETRACK.ORG API","18 SPCS","55089","SPACEBEE-163","PAYLOAD","U","23001CJ","2023-06-20 10:16:14","556864","15.20103061","0.0013255","97.4759","231.4787","357.8923","2.2253","0","999","2559","0.0008665","0.00018725","0","3938135","0 SPACEBEE-163","1 55089U 23001CJ  23171.42794626  .00018725  00000-0  86650-3 0  9998","2 55089  97.4759 231.4787 0013255 357.8923   2.2253 15.20103061 25599","2023-001CJ","55089","6883.666","94.730","514.656","496.407","0"
"GENERATED VIA SPACETRACK.ORG API","18 SPCS","55089","SPACEBEE-163","PAYLOAD","U","23001CJ","2023-06-20 16:35:24","233280","15.20113592","0.0013233","97.4759","231.7397","356.9439","3.1712","0","999","2563","0.00085967","0.00018582","0","3938544","0 SPACEBEE-163","1 55089U 23001CJ  23171.69125270  .00018582  00000-0  85967-3 0  9991","2 55089  97.4759 231.7397 0013233 356.9439   3.1712 15.20113592 25632","2023-001CJ","55089","6883.635","94.730","514.609","496.391","0"
"GENERATED VIA SPACETRACK.ORG API","18 SPCS","55089","SPACEBEE-163","PAYLOAD","U","23001CJ","2023-06-21 03:38:55","784256","15.20132568","0.0013187","97.4757","232.1963","355.3603","4.7508","0","999","2570","0.00087903","0.00019013","0","3939133","0 SPACEBEE-163","1 55089U 23001CJ  23172.15203454  .00019013  00000-0  87903-3 0  9996","2 55089  97.4757 232.1963 0013187 355.3603   4.7508 15.20132568 25700","2023-001CJ","55089","6883.577","94.729","514.520","496.365","0"
"GENERATED VIA SPACETRACK.ORG API","18 SPCS","55089","SPACEBEE-163","PAYLOAD","U","23001CJ","2023-06-21 17:52:01","417440","15.20153908","0.0013131","97.4754","232.7836","353.0861","7.0191","0","999","2579","0.00083943","0.00018162","0","3939355","0 SPACEBEE-163","1 55089U 23001CJ  23172.74446085  .00018162  00000-0  83943-3 0  9994","2 55089  97.4754 232.7836 0013131 353.0861   7.0191 15.20153908 25796","2023-001CJ","55089","6883.513","94.727","514.417","496.339","0"
"GENERATED VIA SPACETRACK.ORG API","18 SPCS","55089","SPACEBEE-163","PAYLOAD","U","23001CJ","2023-06-23 03:02:31","494624","15.20211261","0.0013026","97.4752","234.1539","347.5494","12.5417","0","999","2600","0.00097389","0.00021126","0","3940777","0 SPACEBEE-163","1 55089U 23001CJ  23174.12675341  .00021126  00000-0  97389-3 0  9990","2 55089  97.4752 234.1539 0013026 347.5494  12.5417 15.20211261 26007","2023-001CJ","55089","6883.340","94.724","514.171","496.239","0"
"GENERATED VIA SPACETRACK.ORG API","18 SPCS","55089","SPACEBEE-163","PAYLOAD","U","23001CJ","2023-06-24 16:57:17","244576","15.20283901","0.0012854","97.4756","235.7201","341.4499","18.6266","0","999","2624","0.0010637","0.00023134","0","3941936","0 SPACEBEE-163","1 55089U 23001CJ  23175.70644959  .00023134  00000-0  10637-2 0  9997","2 55089  97.4756 235.7201 0012854 341.4499  18.6266 15.20283901 26245","2023-001CJ","55089","6883.121","94.719","513.833","496.138","0"
"GENERATED VIA SPACETRACK.ORG API","18 SPCS","55089","SPACEBEE-163","PAYLOAD","U","23001CJ","2023-06-26 02:07:36","957216","15.20345195","0.0012791","97.4759","237.0907","336.5516","23.5134","0","999","2645","0.0009554","0.00020802","0","3943123","0 SPACEBEE-163","1 55089U 23001CJ  23177.08862219  .00020802  00000-0  95540-3 0  9997","2 55089  97.4759 237.0907 0012791 336.5516  23.5134 15.20345195 26457","2023-001CJ","55089","6882.936","94.715","513.605","495.997","0"
"GENERATED VIA SPACETRACK.ORG API","18 SPCS","55089","SPACEBEE-163","PAYLOAD","U","23001CJ","2023-06-27 03:24:00","307008","15.20385285","0.0012748","97.4756","238.1348","332.2944","27.7611","0","999","2661","0.00080519","0.00017533","0","3943943","0 SPACEBEE-163","1 55089U 23001CJ  23178.14167022  .00017533  00000-0  80519-3 0  9992","2 55089  97.4756 238.1348 0012748 332.2944  27.7611 15.20385285 26613","2023-001CJ","55089","6882.815","94.713","513.454","495.905","0"
